start=new Date('2023-06-03T00:00:00.000Z').valueOf();
sats=[{"RCS_SIZE":"LARGE","REV_AT_EPOCH":"16372","CENTER_NAME":"EARTH","DECAY_DATE":null,"SEMIMAJOR_AXIS":"6925.268","APOAPSIS":"547.783","TLE_LINE2":"2 45748  53.0531  97.6004 0000938 110.7381 249.3709 15.06426209163722","ARG_OF_PERICENTER":"110.7381","MEAN_MOTION_DDOT":"0.0000000000000","MEAN_ANOMALY":"249.3709","OBJECT_TYPE":"PAYLOAD","ELEMENT_SET_NO":"999","COUNTRY_CODE":"US","NORAD_CAT_ID":"45748","RA_OF_ASC_NODE":"97.6004","MEAN_ELEMENT_THEORY":"SGP4","SITE":"AFETR","OBJECT_ID":"2020-038U","LAUNCH_DATE":"2020-06-13","INCLINATION":"53.0531","EPOCH":"2023-06-02T03:34:02.667936","PERIOD":"95.590","FILE":"3923342","GP_ID":"233036040","TLE_LINE1":"1 45748U 20038U   23153.14864199  .00014490  00000-0  98893-3 0  9995","ECCENTRICITY":"0.00009380","PERIAPSIS":"546.484","CLASSIFICATION_TYPE":"U","BSTAR":"0.00098893000000","MEAN_MOTION":"15.06426209","TIME_SYSTEM":"UTC","EPHEMERIS_TYPE":"0","REF_FRAME":"TEME","OBJECT_NAME":"STARLINK-1507","MEAN_MOTION_DOT":"0.00014490"},{"PERIAPSIS":"546.097","BSTAR":"0.00016475000000","CLASSIFICATION_TYPE":"U","MEAN_MOTION":"15.06399057","REF_FRAME":"TEME","OBJECT_NAME":"STARLINK-1391","MEAN_MOTION_DOT":"0.00002173","EPHEMERIS_TYPE":"0","TIME_SYSTEM":"UTC","INCLINATION":"53.0529","LAUNCH_DATE":"2020-06-13","PERIOD":"95.592","EPOCH":"2023-06-02T18:35:04.933824","ECCENTRICITY":"0.00016160","TLE_LINE1":"1 45750U 20038W   23153.77436266  .00002173  00000-0  16475-3 0  9998","GP_ID":"233068129","FILE":"3923570","MEAN_ANOMALY":"264.3008","MEAN_MOTION_DDOT":"0.0000000000000","ELEMENT_SET_NO":"999","OBJECT_TYPE":"PAYLOAD","RA_OF_ASC_NODE":"74.7992","NORAD_CAT_ID":"45750","COUNTRY_CODE":"US","OBJECT_ID":"2020-038W","SITE":"AFETR","MEAN_ELEMENT_THEORY":"SGP4","RCS_SIZE":"LARGE","SEMIMAJOR_AXIS":"6925.351","CENTER_NAME":"EARTH","DECAY_DATE":null,"REV_AT_EPOCH":"16411","TLE_LINE2":"2 45750  53.0529  74.7992 0001616  95.8165 264.3008 15.06399057164114","APOAPSIS":"548.336","ARG_OF_PERICENTER":"95.8165"},{"MEAN_ELEMENT_THEORY":"SGP4","OBJECT_ID":"2020-038X","SITE":"AFETR","COUNTRY_CODE":"US","RA_OF_ASC_NODE":"74.8058","NORAD_CAT_ID":"45751","ELEMENT_SET_NO":"999","OBJECT_TYPE":"PAYLOAD","MEAN_MOTION_DDOT":"0.0000000000000","MEAN_ANOMALY":"268.8230","ARG_OF_PERICENTER":"91.2945","TLE_LINE2":"2 45751  53.0541  74.8058 0001629  91.2945 268.8230 15.06394666164110","APOAPSIS":"548.358","REV_AT_EPOCH":"16411","SEMIMAJOR_AXIS":"6925.365","CENTER_NAME":"EARTH","DECAY_DATE":null,"RCS_SIZE":"LARGE","TIME_SYSTEM":"UTC","MEAN_MOTION_DOT":"-0.00002117","REF_FRAME":"TEME","OBJECT_NAME":"STARLINK-1464","EPHEMERIS_TYPE":"0","MEAN_MOTION":"15.06394666","CLASSIFICATION_TYPE":"U","BSTAR":"-0.00012326000000","PERIAPSIS":"546.102","FILE":"3923570","GP_ID":"233068379","ECCENTRICITY":"0.00016290","TLE_LINE1":"1 45751U 20038X   23153.77067472 -.00002117  00000-0 -12326-3 0  9999","PERIOD":"95.592","EPOCH":"2023-06-02T18:29:46.295808","LAUNCH_DATE":"2020-06-13","INCLINATION":"53.0541"},{"FILE":"3923570","GP_ID":"233068630","ECCENTRICITY":"0.00013970","TLE_LINE1":"1 45753U 20038Z   23153.78173299  .00004635  00000-0  32980-3 0  9990","LAUNCH_DATE":"2020-06-13","INCLINATION":"53.0540","PERIOD":"95.592","EPOCH":"2023-06-02T18:45:41.730336","MEAN_MOTION":"15.06409035","TIME_SYSTEM":"UTC","MEAN_MOTION_DOT":"0.00004635","REF_FRAME":"TEME","OBJECT_NAME":"STARLINK-1476","EPHEMERIS_TYPE":"0","PERIAPSIS":"546.218","CLASSIFICATION_TYPE":"U","BSTAR":"0.00032980000000","TLE_LINE2":"2 45753  53.0540  74.7621 0001397  85.0472 275.0677 15.06409035164116","APOAPSIS":"548.153","ARG_OF_PERICENTER":"85.0472","RCS_SIZE":"LARGE","REV_AT_EPOCH":"16411","SEMIMAJOR_AXIS":"6925.321","CENTER_NAME":"EARTH","DECAY_DATE":null,"COUNTRY_CODE":"US","RA_OF_ASC_NODE":"74.7621","NORAD_CAT_ID":"45753","MEAN_ELEMENT_THEORY":"SGP4","OBJECT_ID":"2020-038Z","SITE":"AFETR","MEAN_MOTION_DDOT":"0.0000000000000","MEAN_ANOMALY":"275.0677","ELEMENT_SET_NO":"999","OBJECT_TYPE":"PAYLOAD"},{"EPHEMERIS_TYPE":"0","MEAN_MOTION_DOT":"0.00020413","REF_FRAME":"TEME","OBJECT_NAME":"STARLINK-1477","TIME_SYSTEM":"UTC","MEAN_MOTION":"15.06438160","BSTAR":"0.00138390000000","CLASSIFICATION_TYPE":"U","PERIAPSIS":"546.247","TLE_LINE1":"1 45754U 20038AA  23153.18829091  .00020413  00000-0  13839-2 0  9996","ECCENTRICITY":"0.00012270","GP_ID":"233035541","FILE":"3923342","EPOCH":"2023-06-02T04:31:08.334624","PERIOD":"95.590","INCLINATION":"53.0538","LAUNCH_DATE":"2020-06-13","SITE":"AFETR","OBJECT_ID":"2020-038AA","MEAN_ELEMENT_THEORY":"SGP4","NORAD_CAT_ID":"45754","RA_OF_ASC_NODE":"77.4208","COUNTRY_CODE":"US","OBJECT_TYPE":"PAYLOAD","ELEMENT_SET_NO":"999","MEAN_ANOMALY":"267.1966","MEAN_MOTION_DDOT":"0.0000000000000","ARG_OF_PERICENTER":"92.9163","APOAPSIS":"547.946","TLE_LINE2":"2 45754  53.0538  77.4208 0001227  92.9163 267.1966 15.06438160164025","CENTER_NAME":"EARTH","DECAY_DATE":null,"SEMIMAJOR_AXIS":"6925.232","REV_AT_EPOCH":"16402","RCS_SIZE":"LARGE"},{"MEAN_MOTION":"15.06431716","TIME_SYSTEM":"UTC","EPHEMERIS_TYPE":"0","OBJECT_NAME":"STARLINK-1478","REF_FRAME":"TEME","MEAN_MOTION_DOT":"0.00013079","PERIAPSIS":"546.184","CLASSIFICATION_TYPE":"U","BSTAR":"0.00089455000000","FILE":"3923342","GP_ID":"233036793","TLE_LINE1":"1 45755U 20038AB  23153.07403124  .00013079  00000-0  89455-3 0  9998","ECCENTRICITY":"0.00013470","LAUNCH_DATE":"2020-06-13","INCLINATION":"53.0548","EPOCH":"2023-06-02T01:46:36.299136","PERIOD":"95.590","COUNTRY_CODE":"US","NORAD_CAT_ID":"45755","RA_OF_ASC_NODE":"77.9394","MEAN_ELEMENT_THEORY":"SGP4","SITE":"AFETR","OBJECT_ID":"2020-038AB","MEAN_MOTION_DDOT":"0.0000000000000","MEAN_ANOMALY":"272.2573","OBJECT_TYPE":"PAYLOAD","ELEMENT_SET_NO":"999","APOAPSIS":"548.049","TLE_LINE2":"2 45755  53.0548  77.9394 0001347  87.8570 272.2573 15.06431716163992","ARG_OF_PERICENTER":"87.8570","RCS_SIZE":"LARGE","REV_AT_EPOCH":"16399","DECAY_DATE":null,"CENTER_NAME":"EARTH","SEMIMAJOR_AXIS":"6925.251"},{"CENTER_NAME":"EARTH","DECAY_DATE":null,"SEMIMAJOR_AXIS":"6925.198","REV_AT_EPOCH":"16401","RCS_SIZE":"LARGE","ARG_OF_PERICENTER":"82.6331","APOAPSIS":"547.887","TLE_LINE2":"2 45756  53.0538  77.3486 0001189  82.6331 277.4793 15.06448998164015","OBJECT_TYPE":"PAYLOAD","ELEMENT_SET_NO":"999","MEAN_ANOMALY":"277.4793","MEAN_MOTION_DDOT":"0.0000000000000","SITE":"AFETR","OBJECT_ID":"2020-038AC","MEAN_ELEMENT_THEORY":"SGP4","NORAD_CAT_ID":"45756","RA_OF_ASC_NODE":"77.3486","COUNTRY_CODE":"US","EPOCH":"2023-06-02T04:51:00.263232","PERIOD":"95.589","INCLINATION":"53.0538","LAUNCH_DATE":"2020-06-13","TLE_LINE1":"1 45756U 20038AC  23153.20208638  .00018270  00000-0  12406-2 0  9996","ECCENTRICITY":"0.00011890","FILE":"3923342","GP_ID":"233037042","BSTAR":"0.00124060000000","CLASSIFICATION_TYPE":"U","PERIAPSIS":"546.240","EPHEMERIS_TYPE":"0","MEAN_MOTION_DOT":"0.00018270","REF_FRAME":"TEME","OBJECT_NAME":"STARLINK-1484","TIME_SYSTEM":"UTC","MEAN_MOTION":"15.06448998"},{"RA_OF_ASC_NODE":"72.6741","NORAD_CAT_ID":"45757","COUNTRY_CODE":"US","OBJECT_ID":"2020-038AD","SITE":"AFETR","MEAN_ELEMENT_THEORY":"SGP4","MEAN_ANOMALY":"289.0810","MEAN_MOTION_DDOT":"0.0000000000000","ELEMENT_SET_NO":"999","OBJECT_TYPE":"PAYLOAD","TLE_LINE2":"2 45757  53.0542  72.6741 0005066  71.0732 289.0810 15.15686761164075","APOAPSIS":"522.390","ARG_OF_PERICENTER":"71.0732","RCS_SIZE":"LARGE","SEMIMAJOR_AXIS":"6897.031","CENTER_NAME":"EARTH","DECAY_DATE":null,"REV_AT_EPOCH":"16407","MEAN_MOTION":"15.15686761","OBJECT_NAME":"STARLINK-1486","REF_FRAME":"TEME","MEAN_MOTION_DOT":"0.00029987","EPHEMERIS_TYPE":"0","TIME_SYSTEM":"UTC","PERIAPSIS":"515.402","BSTAR":"0.00156570000000","CLASSIFICATION_TYPE":"U","ECCENTRICITY":"0.00050660","TLE_LINE1":"1 45757U 20038AD  23153.14932534  .00029987  00000-0  15657-2 0  9997","GP_ID":"233035292","FILE":"3923342","INCLINATION":"53.0542","LAUNCH_DATE":"2020-06-13","PERIOD":"95.006","EPOCH":"2023-06-02T03:35:01.709376"},{"COUNTRY_CODE":"US","RA_OF_ASC_NODE":"71.7045","NORAD_CAT_ID":"45758","MEAN_ELEMENT_THEORY":"SGP4","OBJECT_ID":"2020-038AE","SITE":"AFETR","MEAN_MOTION_DDOT":"0.0000000000000","MEAN_ANOMALY":"274.7864","ELEMENT_SET_NO":"999","OBJECT_TYPE":"PAYLOAD","TLE_LINE2":"2 45758  53.0573  71.7045 0005173  85.3720 274.7864 15.16788036164092","APOAPSIS":"519.124","ARG_OF_PERICENTER":"85.3720","RCS_SIZE":"LARGE","REV_AT_EPOCH":"16409","SEMIMAJOR_AXIS":"6893.693","DECAY_DATE":null,"CENTER_NAME":"EARTH","MEAN_MOTION":"15.16788036","TIME_SYSTEM":"UTC","OBJECT_NAME":"STARLINK-1487","MEAN_MOTION_DOT":"0.00032300","REF_FRAME":"TEME","EPHEMERIS_TYPE":"0","PERIAPSIS":"511.991","CLASSIFICATION_TYPE":"U","BSTAR":"0.00163280000000","GP_ID":"233036041","FILE":"3923342","ECCENTRICITY":"0.00051730","TLE_LINE1":"1 45758U 20038AE  23153.20399001  .00032300  00000-0  16328-2 0  9990","LAUNCH_DATE":"2020-06-13","INCLINATION":"53.0573","PERIOD":"94.937","EPOCH":"2023-06-02T04:53:44.736864"},{"MEAN_ANOMALY":"270.7355","MEAN_MOTION_DDOT":"0.0000000000000","OBJECT_TYPE":"PAYLOAD","ELEMENT_SET_NO":"999","NORAD_CAT_ID":"45759","RA_OF_ASC_NODE":"77.3870","COUNTRY_CODE":"US","SITE":"AFETR","OBJECT_ID":"2020-038AF","MEAN_ELEMENT_THEORY":"SGP4","RCS_SIZE":"LARGE","DECAY_DATE":null,"CENTER_NAME":"EARTH","SEMIMAJOR_AXIS":"6925.203","REV_AT_EPOCH":"16401","APOAPSIS":"548.030","TLE_LINE2":"2 45759  53.0541  77.3870 0001389  89.3793 270.7355 15.06447591164015","ARG_OF_PERICENTER":"89.3793","PERIAPSIS":"546.106","BSTAR":"0.00131600000000","CLASSIFICATION_TYPE":"U","MEAN_MOTION":"15.06447591","EPHEMERIS_TYPE":"0","MEAN_MOTION_DOT":"0.00019400","OBJECT_NAME":"STARLINK-1493","REF_FRAME":"TEME","TIME_SYSTEM":"UTC","INCLINATION":"53.0541","LAUNCH_DATE":"2020-06-13","EPOCH":"2023-06-02T04:41:45.291840","PERIOD":"95.589","TLE_LINE1":"1 45759U 20038AF  23153.19566310  .00019400  00000-0  13160-2 0  9995","ECCENTRICITY":"0.00013890","GP_ID":"233036294","FILE":"3923342"}];
